      2.10          N: GNSS NAV DATA                        RINEX VERSION / TYPE
fic2rin                                 11/23/2023 00:17:52 PGM / RUN BY / DATE
                                                            END OF HEADER
23 23 11 22 22  0  0.0  .103431753814D-03  .648014975013D-11  .000000000000D+00
     .206000000000D+03  .370625000000D+02  .420053211188D-08 -.307973357076D+01
     .200606882572D-05  .387673208024D-02  .717677175999D-05  .515369279480D+04
     .338400000000D+06  .186264514923D-08  .137610347338D+00 -.502914190292D-07
     .976756325776D+00  .249156250000D+03 -.303516667556D+01 -.798997567170D-08
     .490020411317D-09  .100000000000D+01  .228900000000D+04  .000000000000D+00
     .240000000000D+01  .000000000000D+00 -.838190317154D-08  .462000000000D+03
     .331200000000D+06  .400000000000D+01
14 23 11 22 22  0  0.0  .250758603215D-03  .106865627458D-10  .000000000000D+00
     .103000000000D+03  .915000000000D+02  .506163940903D-08  .270358544682D+01
     .483542680740D-05  .370571343228D-02  .655278563499D-05  .515367944145D+04
     .338400000000D+06 -.135973095894D-06 -.294743990660D+01 -.223517417908D-07
     .947592787615D+00  .246281250000D+03 -.295312021416D+01 -.836749139675D-08
     .351443210449D-09  .100000000000D+01  .228900000000D+04  .000000000000D+00
     .240000000000D+01  .000000000000D+00 -.791624188423D-08  .871000000000D+03
     .331200000000D+06  .400000000000D+01
2  23 11 23  0  0  0.0 -.525378622115D-03  .511590769747D-11  .000000000000D+00
     .450000000000D+02 -.543750000000D+02  .418195990970D-08  .152596417236D+01
    -.320933759212D-05  .162334749475D-01  .111758708954D-04  .515373330498D+04
     .345600000000D+06  .258907675743D-06 -.963018976417D+00 -.298023223877D-06
     .967583342267D+00  .162625000000D+03 -.130896588076D+01 -.785925594098D-08
    -.276082928534D-09  .100000000000D+01  .228900000000D+04  .000000000000D+00
     .240000000000D+01  .000000000000D+00 -.176951289177D-07  .450000000000D+02
     .338400000000D+06  .400000000000D+01
1  23 11 23  0  0  0.0  .163274351507D-03  .227373675443D-12  .000000000000D+00
     .900000000000D+01 -.306250000000D+02  .370336854588D-08 -.109100636127D+01
    -.159628689289D-05  .129641924286D-01  .120643526316D-04  .515402934074D+04
     .345600000000D+06  .158324837685D-06 -.860455254261D+00  .299885869026D-06
     .990515197585D+00  .161000000000D+03  .100097342631D+01 -.772175021332D-08
    -.188222125921D-09  .100000000000D+01  .228900000000D+04  .000000000000D+00
     .240000000000D+01  .630000000000D+02  .512227416039D-08  .900000000000D+01
     .338400000000D+06  .400000000000D+01
10 23 11 23  0  0  0.0 -.624395906925D-04 -.147792889038D-11  .000000000000D+00
     .170000000000D+02  .332812500000D+02  .407445543171D-08  .307187443252D+01
     .165402889252D-05  .911499618087D-02  .725127756596D-05  .515368555069D+04
     .345600000000D+06  .391155481339D-07  .165623641289D+00 -.614672899246D-07
     .981610026101D+00  .250218750000D+03 -.242409952086D+01 -.779461039110D-08
     .438232539859D-09  .100000000000D+01  .228900000000D+04  .000000000000D+00
     .240000000000D+01  .000000000000D+00  .232830643654D-08  .170000000000D+02
     .338400000000D+06  .400000000000D+01
8  23 11 23  0  0  0.0 -.153396744281D-03 -.181898940355D-11  .000000000000D+00
     .380000000000D+02 -.283437500000D+02  .510592696807D-08  .100806702391D+01
    -.126473605633D-05  .894694949966D-02  .396743416786D-05  .515378002167D+04
     .345600000000D+06  .558793544769D-07 -.195846944371D+01  .119209289551D-06
     .955860558378D+00  .297375000000D+03  .278563752144D+00 -.865000316449D-08
    -.454304637897D-09  .100000000000D+01  .228900000000D+04  .000000000000D+00
     .240000000000D+01  .000000000000D+00  .512227416039D-08  .380000000000D+02
     .338400000000D+06  .400000000000D+01
5  23 11 23  0  0  0.0 -.151403248310D-03 -.147792889038D-11  .000000000000D+00
     .810000000000D+02  .326875000000D+02  .442875590403D-08  .136731108117D+01
     .161491334438D-05  .586866075173D-02  .757910311222D-05  .515376141930D+04
     .345600000000D+06 -.113621354103D-06  .119330723655D+00 -.540167093277D-07
     .968922282428D+00  .242156250000D+03  .124036680664D+01 -.814498212834D-08
     .363229415677D-09  .100000000000D+01  .228900000000D+04  .000000000000D+00
     .240000000000D+01  .000000000000D+00 -.111758708954D-07  .810000000000D+02
     .338400000000D+06  .400000000000D+01
6  23 11 23  0  0  0.0  .498699489981D-03 -.104591890704D-10  .000000000000D+00
     .490000000000D+02 -.393125000000D+02  .372336937899D-08 -.901837880048D+00
    -.198744237423D-05  .300856109243D-02  .111386179924D-04  .515378328514D+04
     .345600000000D+06 -.335276126862D-07 -.868807100389D+00 -.186264514923D-08
     .989654034766D+00  .182062500000D+03 -.828823449995D+00 -.769103464818D-08
    -.111790370803D-09  .100000000000D+01  .228900000000D+04  .000000000000D+00
     .240000000000D+01  .000000000000D+00  .372529029846D-08  .490000000000D+02
     .338400000000D+06  .400000000000D+01
4  23 11 23  0  0  0.0  .220228917897D-03  .103455022327D-10  .000000000000D+00
     .440000000000D+02 -.598750000000D+02  .473269713583D-08  .771417473708D+00
    -.303983688354D-05  .271659181453D-02  .592134892941D-05  .515360053635D+04
     .345600000000D+06  .689178705215D-07  .124807505220D+01  .115483999252D-06
     .963363524346D+00  .265031250000D+03 -.305241921518D+01 -.829355974577D-08
    -.263225250103D-09  .100000000000D+01  .228900000000D+04  .000000000000D+00
     .240000000000D+01  .000000000000D+00 -.465661287308D-08  .300000000000D+03
     .338400000000D+06  .400000000000D+01
3  23 11 23  0  0  0.0  .401958823204D-05  .259205990005D-10  .000000000000D+00
     .163000000000D+03  .375000000000D+02  .414088677027D-08 -.225423546376D+01
     .205263495445D-05  .507071334869D-02  .755488872528D-05  .515355810928D+04
     .345600000000D+06  .484287738800D-07  .168214943193D+00 -.894069671631D-07
     .981907206205D+00  .246500000000D+03  .111460879191D+01 -.788282835144D-08
     .444304221340D-09  .100000000000D+01  .228900000000D+04  .000000000000D+00
     .240000000000D+01  .000000000000D+00  .186264514923D-08  .163000000000D+03
     .338400000000D+06  .400000000000D+01
24 23 11 23  0  0  0.0 -.377466436476D-03 -.875388650456D-11  .000000000000D+00
     .600000000000D+01 -.108437500000D+02  .506556814410D-08 -.771522762848D+00
    -.348314642906D-06  .148930338910D-01  .108350068331D-04  .515363107872D+04
     .345600000000D+06  .763684511185D-07  .216856583996D+01  .286847352982D-06
     .933799132002D+00  .159687500000D+03  .945565347004D+00 -.844178020546D-08
    -.140005831805D-09  .100000000000D+01  .228900000000D+04  .000000000000D+00
     .240000000000D+01  .000000000000D+00  .232830643654D-08  .600000000000D+01
     .338400000000D+06  .400000000000D+01
32 23 11 23  0  0  0.0 -.588789116591D-03 -.432009983342D-11  .000000000000D+00
     .260000000000D+02 -.519062500000D+02  .476448417418D-08  .177570416223D+01
    -.270456075668D-05  .715661933646D-02  .611133873463D-05  .515359663963D+04
     .345600000000D+06 -.217929482460D-06  .120386550839D+01 -.614672899246D-07
     .960336597623D+00  .259906250000D+03 -.222230598200D+01 -.832070373357D-08
    -.188222125921D-09  .100000000000D+01  .228900000000D+04  .000000000000D+00
     .240000000000D+01  .000000000000D+00  .465661287308D-09  .260000000000D+02
     .338400000000D+06  .400000000000D+01
29 23 11 23  0  0  0.0 -.610150862485D-03  .113686837722D-12  .000000000000D+00
     .210000000000D+02 -.361250000000D+02  .447447209401D-08  .958162411699D+00
    -.202283263206D-05  .250907312147D-02  .476837158203D-05  .515368365097D+04
     .345600000000D+06 -.447034835815D-07 -.185206599023D+01 -.186264514923D-07
     .973839161796D+00  .292000000000D+03  .257168342923D+01 -.823534303509D-08
    -.376444251843D-09  .100000000000D+01  .228900000000D+04  .000000000000D+00
     .240000000000D+01  .000000000000D+00 -.102445483208D-07  .210000000000D+02
     .338400000000D+06  .400000000000D+01
22 23 11 23  0  0  0.0  .789975747466D-04 -.693489710102D-11  .000000000000D+00
     .290000000000D+02  .824687500000D+02  .473269713583D-08  .161917612340D+01
     .417418777943D-05  .149822736857D-01  .617653131485D-05  .515372454643D+04
     .345600000000D+06  .275671482086D-06 -.288465347561D+01 -.149011611938D-06
     .963117601965D+00  .258437500000D+03 -.116347629468D+01 -.812819571483D-08
     .313941648358D-09  .100000000000D+01  .228900000000D+04  .000000000000D+00
     .240000000000D+01  .000000000000D+00 -.111758708954D-07  .290000000000D+02
     .338400000000D+06  .400000000000D+01
17 23 11 23  0  0  0.0  .722953118384D-03 -.454747350886D-12  .000000000000D+00
     .370000000000D+02 -.481562500000D+02  .467305179422D-08  .107655724668D+01
    -.279396772385D-05  .138393867528D-01  .467896461487D-05  .515361702156D+04
     .345600000000D+06 -.745058059692D-07 -.186661393226D+01 -.288709998131D-06
     .971506174652D+00  .298437500000D+03 -.137249874521D+01 -.847571019021D-08
    -.376444251843D-09  .100000000000D+01  .228900000000D+04  .000000000000D+00
     .240000000000D+01  .000000000000D+00 -.111758708954D-07  .370000000000D+02
     .338400000000D+06  .400000000000D+01
20 23 11 23  0  0  0.0  .400273595005D-03 -.193267624127D-11  .000000000000D+00
     .190000000000D+02  .398125000000D+02  .479091384651D-08 -.306088111078D+00
     .209733843803D-05  .408978480846D-02  .822916626930D-05  .515365788269D+04
     .345600000000D+06  .502914190292D-07 -.618797377680D-02  .353902578354D-07
     .951456379132D+00  .217312500000D+03 -.276046594732D+01 -.830963184381D-08
     .385373195198D-09  .100000000000D+01  .228900000000D+04  .000000000000D+00
     .240000000000D+01  .000000000000D+00 -.838190317154D-08  .190000000000D+02
     .338400000000D+06  .400000000000D+01
